{"fetched_at":"2026-03-29T16:36:15Z","count":15609,"tles":[{"name":"STARLINK-5268","line1":"1 54192U 22141AM  26087.77937123  .00000295  00000+0  36639-4 0  9999","line2":"2 54192  53.2168 268.1488 0001292  91.8520 268.2620 15.08848471188889","category":"Starlink"}]}